OBJECT_NAME,OBJECT_ID,EPOCH,MEAN_MOTION,ECCENTRICITY,INCLINATION,RA_OF_ASC_NODE,ARG_OF_PERICENTER,MEAN_ANOMALY,EPHEMERIS_TYPE,CLASSIFICATION_TYPE,NORAD_CAT_ID,ELEMENT_SET_NO,REV_AT_EPOCH,BSTAR,MEAN_MOTION_DOT,MEAN_MOTION_DDOT,SEMIMAJOR_AXIS,SATELLITE_TYPE,ORBITAL_PERIOD,ORBITAL_PERIOD_HOURS,ALTITUDE,PERIGEE,APOGEE
RAVAN,2016-067B,2024-12-30T18:22:53.235552,15.22862699,0.001159,98.055,196.1972,76.6148,283.6378,0,U,41849,999,44580,0.001544,0.00036295,0.0,6875.34784246486,CubeSat,5673.528410585465,1.5759801140515182,504.34784246486015,6867.3793143154435,6883.316370614276
SNAP-3 JIMI,2015-058M,2024-12-31T20:41:52.176480,14.92817304,0.0167748,64.769,93.5714,246.9146,111.4209,0,U,40975,999,3447,0.0017478,0.00023812,0.0,6967.292888291544,CubeSat,5787.717468873447,1.6076992969092907,596.2928882915439,6850.417943549031,7084.167833034057
VERONIKA,2023-174F,2024-12-31T21:45:36.442656,15.38743332,0.0008048,97.438,81.7688,261.7779,98.2553,0,U,58261,999,6391,0.0020125,0.00077744,0.0,6827.961317065106,CubeSat,5614.974641006186,1.559715178057274,456.9613170651064,6822.466173797132,6833.456460333081
SITRO-AIS 10 (BURDAEV),2023-091AK,2025-01-01T03:35:41.125920,15.18283299,0.0011447,97.586,59.9996,142.6001,217.6032,0,U,57199,999,8351,0.0014115,0.00029003,0.0,6889.165712413123,CubeSat,5690.640734761427,1.5807335374337297,518.1657124131234,6881.279684422124,6897.051740404123
CUTE-1 (CO-55),2003-031E,2024-12-31T22:55:56.846784,14.23737601,0.0008725,98.6776,11.3005,293.8546,66.1718,0,U,27844,999,11592,0.00062873,1.393e-05,0.0,7190.877184786641,CubeSat,6068.537335902925,1.6857048155285903,819.877184786641,7184.6031444429145,7197.1512251303675
CORVUS BC4,2018-099K,2025-01-01T01:57:24.169536,15.0584322,0.0010443,97.4856,54.4393,37.1114,323.0833,0,U,43767,999,33213,0.00087524,0.00012672,0.0,6927.055534220498,CubeSat,5737.652282418459,1.5937923006717942,556.055534220498,6919.821610126111,6934.2894583148845
SITRO-AIS 51,2024-039M,2025-01-01T03:19:43.219488,15.50845878,0.00076,97.41,330.6358,204.8311,155.2576,0,U,59062,999,4701,0.0019855,0.00116183,0.0,6792.392096062064,CubeSat,5571.1563029974795,1.5475434174993,421.3920960620644,6787.229878069057,6797.554314055073
MOVE-II,2018-099Y,2024-12-31T20:22:44.581440,15.35518885,0.0004675,97.4927,70.1175,14.1524,345.985,0,U,43780,999,33303,0.0025418,0.000886,0.0,6837.516697717921,CubeSat,5626.765566088991,1.56299043502472,466.5166977179206,6834.320158661738,6840.713236774104
GRBBETA,2024-128C,2025-01-01T04:08:58.604928,15.0015615,0.0033663,61.9938,274.3611,19.3577,340.8782,0,U,60237,999,2626,0.0010683,0.00013391,0.0,6944.551402147658,CubeSat,5759.403638212836,1.59983434394801,573.5514021476583,6921.173958762608,6967.928845532708
PROPCUBE 3,2015-058K,2024-12-31T19:33:57.391776,14.8802174,0.0179738,64.7709,109.3389,247.7802,110.4157,0,U,40973,999,3539,0.0013049,0.00016103,0.0,6982.254218977259,CubeSat,5806.369998463437,1.6128805551287324,611.2542189772594,6856.756578096206,7107.751859858313
GRBBETA,2024-128C,2025-01-01T04:08:58.604928,15.0015615,0.0033663,61.9938,274.3611,19.3577,340.8782,0,U,60237,999,2626,0.0010683,0.00013391,0.0,6944.551402147658,CubeSat,5759.403638212836,1.59983434394801,573.5514021476583,6921.173958762608,6967.928845532708
M2 PATHFINDER,2020-037E,2024-12-31T10:33:44.747136,15.00051406,0.0011662,97.7772,182.3437,161.3691,198.7961,0,U,45727,999,24548,0.00073378,9.096e-05,0.0,6944.874676236384,CubeSat,5759.805799746947,1.599946055485263,573.8746762363844,6936.775563388957,6952.9737890838105
PROPCUBE 1 (FLORA),2015-058N,2024-12-31T16:21:47.276352,14.84288629,0.0183224,64.7751,140.5899,247.6434,110.5169,0,U,40976,999,3707,0.0011653,0.00013088,0.0,6993.956622202023,CubeSat,5820.973508379119,1.6169370856608665,622.956622202023,6865.810551387389,7122.102693016657
SITRO-AIS 8 (ANOKHIN),2023-091AD,2025-01-01T02:58:21.462528,15.1575941,0.0015486,97.5843,58.396,158.1278,202.0618,0,U,57193,999,8341,0.0013444,0.00025724,0.0,6896.811018873239,CubeSat,5700.116213164305,1.5833656147678625,525.8110188732389,6886.1306173294115,6907.491420417066
AEROCUBE 6A,2014-033AM,2024-12-31T21:50:28.011552,14.8868005,0.004603,97.6762,173.431,351.4054,8.637,0,U,40045,999,56715,0.001639,0.00015572,0.0,6980.195649660228,CubeSat,5803.8023604852915,1.6121673223570254,609.1956496602279,6948.065809084842,7012.325490235613
SITRO-AIS 12 (SMIRENNIY),2023-091AQ,2025-01-01T03:45:08.198496,15.18395368,0.0011404,97.5864,60.1755,137.167,223.0454,0,U,57204,999,8352,0.0014464,0.00029821,0.0,6888.826726741741,CubeSat,5690.220722668434,1.5806168674078984,517.8267267417414,6880.970708742565,6896.682744740917
HORYU-4,2016-012D,2024-12-31T15:57:39.132864,15.26864332,0.0007399,30.9996,119.4552,187.7533,172.2996,0,U,41340,999,48824,0.0013485,0.00036887,0.0,6863.329900486865,CubeSat,5658.659127153781,1.5718497575427168,492.329900486865,6858.251722693494,6868.408078280235
UKUBE-1,2014-037F,2024-12-31T06:38:43.953504,15.00452365,0.0003271,98.3678,309.3963,94.0291,266.1305,0,U,40074,999,56826,0.0015977,0.00020086,0.0,6943.63738979986,CubeSat,5758.266633274535,1.5995185092429263,572.6373897998601,6941.366126009656,6945.908653590064
ZACUBE-1 (TSHEPISOSAT),2013-066B,2024-12-31T20:33:39.576384,14.93714349,0.0045169,97.7607,319.2531,223.8959,135.8669,0,U,39417,999,60104,0.0011367,0.00012228,0.0,6964.503153209536,CubeSat,5784.241675111176,1.6067337986419934,593.5031532095363,6933.045188916803,6995.961117502269
PROPCUBE 3,2015-058K,2024-12-31T19:33:57.391776,14.8802174,0.0179738,64.7709,109.3389,247.7802,110.4157,0,U,40973,999,3539,0.0013049,0.00016103,0.0,6982.254218977259,CubeSat,5806.369998463437,1.6128805551287324,611.2542189772594,6856.756578096206,7107.751859858313
POLYITAN-1,2014-033AJ,2024-12-31T16:32:37.009536,15.11381807,0.0010602,98.0912,340.5614,175.4266,184.7061,0,U,40042,999,57257,0.0017699,0.00029943,0.0,6910.121992372702,CubeSat,5716.626168305705,1.5879517134182513,539.1219923727022,6902.795881036389,6917.448103709015
ROBUSTA-1F (MTCUBE 2),2022-080E,2024-12-30T08:26:30.346368,6.42584036,0.000838,70.1231,123.9128,45.3679,314.7663,0,U,53109,999,5776,0.0,-3e-08,0.0,12221.238513364082,CubeSat,13445.719632221553,3.7349221200615426,5850.238513364082,12210.997115489883,12231.479911238279
